0 COSMOS 951
1 10352U 77087A   13282.36758464  .00000032  00000-0  17924-4 0  3210
2 10352 082.9722 346.9985 0033022 330.2328 078.8481 13.73995987808360
0 COSMOS 951
1 10352U 77087A   13283.76949141  .00000048  00000-0  34918-4 0  3229
2 10352 082.9720 345.9659 0032952 326.2356 173.3098 13.73995929808554
0 COSMOS 951
1 10352U 77087A   13286.15538304  .00000079  00000-0  67817-4 0  3240
2 10352 082.9715 344.2087 0032839 319.3700 095.0666 13.73995966808883
0 COSMOS 951
1 10352U 77087A   13287.17412058  .00000071  00000-0  59164-4 0  3259
2 10352 082.9712 343.4584 0032797 316.4248 094.2407 13.73996034809029
0 COSMOS 951
1 10352U 77087A   13288.33921597  .00000077  00000-0  65877-4 0  3266
2 10352 082.9709 342.6003 0032782 313.0445 097.3857 13.73996244809181
0 COSMOS 951
1 10352U 77087A   13289.59811383  .00000068  00000-0  56560-4 0  3276
2 10352 082.9706 341.6730 0032757 309.3945 204.5222 13.73996430809353
0 COSMOS 951
1 10352U 77087A   13290.68321736  .00000055  00000-0  42882-4 0  3285
2 10352 082.9704 340.8736 0032755 306.2458 171.9882 13.73996660809502
0 COSMOS 951
1 10352U 77087A   13292.20006417  .00000054  00000-0  41277-4 0  3298
2 10352 082.9702 339.7561 0032695 301.8445 115.0752 13.73996931809712
0 COSMOS 951
1 10352U 77087A   13293.29003282  .00000037  00000-0  23440-4 0  3300
2 10352 082.9702 338.9530 0032671 298.6745 106.6157 13.73996972809865
0 COSMOS 951
1 10352U 77087A   13294.55339551  .00000053  00000-0  40658-4 0  3310
2 10352 082.9701 338.0222 0032652 294.9990 235.8541 13.73997120810032
0 COSMOS 951
1 10352U 77087A   13295.71222295  .00000044  00000-0  30994-4 0  3328
2 10352 082.9701 337.1684 0032656 291.6253 208.0098 13.73997065810198
